GLOBALSTAR M079 [+]     
1 37188U 10054A   21171.31633116 -.00000105  00000-0 -44953-5 0  9991
2 37188  52.0035 257.7882 0000396 155.2178 247.6490 12.62266354493027
GLOBALSTAR M074 [+]     
1 37189U 10054B   21171.49446718 -.00000105  00000-0 -55226-5 0  9996
2 37189  52.0014 256.7948 0000416 164.9346 208.3058 12.62264724493049
GLOBALSTAR M076 [+]     
1 37190U 10054C   21171.29471265 -.00000092  00000-0  63811-4 0  9993
2 37190  52.0029 257.4385 0000311  69.1258 356.5151 12.62267195493025
GLOBALSTAR M077 [+]     
1 37191U 10054D   21171.42845969 -.00000094  00000-0  51996-4 0  9998
2 37191  52.0048 213.4693 0000169 166.6572 207.0489 12.62268184493780
GLOBALSTAR M075 [+]     
1 37192U 10054E   21171.09357279 -.00000100  00000-0  22028-4 0  9996
2 37192  51.9959 301.1160 0000556 113.3393  57.6576 12.62266027492233
GLOBALSTAR M073 [+]     
1 37193U 10054F   21171.37585352 -.00000087  00000-0  95719-4 0  9994
2 37193  52.0036 212.9716 0000159 160.4130 212.9432 12.62267254493780
GLOBALSTAR M083 [+]     
1 37739U 11033A   21171.23025023 -.00000116  00000-0 -68493-4 0  9990
2 37739  51.9839 164.1333 0000220 282.9127  90.2737 12.62269101463092
GLOBALSTAR M088 [+]     
1 37740U 11033B   21171.47630631 -.00000115  00000-0 -64373-4 0  9997
2 37740  51.9747  70.1023 0000573  28.1509 143.3343 12.62264412458591
GLOBALSTAR M091 [+]     
1 37741U 11033C   21171.33106284 -.00000096  00000-0  41250-4 0  9991
2 37741  52.0017  31.4904 0000742  70.0900 100.4455 12.62266404459335
GLOBALSTAR M085 [+]     
1 37742U 11033D   21171.23861370 -.00000098  00000-0  30961-4 0  9994
2 37742  51.9881 344.1006 0000814 101.1203  69.5676 12.62265769460067
GLOBALSTAR M081 [+]     
1 37743U 11033E   21171.32070578 -.00000094  00000-0  56077-4 0  9999
2 37743  51.9974 345.7377 0000684  84.4860 339.6988 12.62264562460119
GLOBALSTAR M089 [+]     
1 37744U 11033F   21171.35029345 -.00000103  00000-0  55955-5 0  9995
2 37744  51.9943 300.1508 0000977 106.8863 271.5466 12.62265730460836
GLOBALSTAR M084 [+]     
1 38040U 11080A   21171.28334234 -.00000083  00000-0  11492-3 0  9998
2 38040  51.9979 166.8757 0000329  34.6246 338.0917 12.62264907438832
GLOBALSTAR M080 [+]     
1 38041U 11080B   21171.36386101 -.00000092  00000-0  66478-4 0  9993
2 38041  52.0032 167.7229 0000371  25.5997 114.3791 12.62269582438826
GLOBALSTAR M082 [+]     
1 38042U 11080C   21171.30071855 -.00000101  00000-0  16926-4 0  9999
2 38042  52.0065 123.2082 0000150 318.2141 193.7121 12.62265682439551
GLOBALSTAR M092 [+]     
1 38043U 11080D   21171.40212514 -.00000095  00000-0  47417-4 0  9991
2 38043  52.0069 213.1968 0000525 123.7392 249.2018 12.62263926438067
GLOBALSTAR M090 [+]     
1 38044U 11080E   21171.15765476 -.00000103  00000-0  52830-5 0  9990
2 38044  51.9878 119.3309 0000386   9.6662  92.7199 12.62266785439526
GLOBALSTAR M086 [+]     
1 38045U 11080F   21171.34127601 -.00000102  00000-0  95719-5 0  9996
2 38045  51.9888 119.2102 0001635 354.6310 102.1558 12.62266544439550
GLOBALSTAR M097 [+]     
1 39072U 13005A   21171.34638965 -.00000095  00000-0  49420-4 0  9994
2 39072  52.0067  32.2555 0000601  50.7401 309.3519 12.62267527386781
GLOBALSTAR M093 [+]     
1 39073U 13005B   21171.32007206 -.00000101  00000-0  13435-4 0  9996
2 39073  51.9830  27.9758 0000537  55.1885 304.9032 12.62265767386771
GLOBALSTAR M094 [+]     
1 39074U 13005C   21171.08242056 -.00000103  00000-0  70078-5 0  9993
2 39074  51.9969 301.6248 0000613 118.6717 241.4211 12.62267901388256
GLOBALSTAR M096 [+]     
1 39075U 13005D   21171.17473589 -.00000103  00000-0  32065-5 0  9995
2 39075  52.0093 348.7167 0000624  87.9882 272.1056 12.62268265387512
GLOBALSTAR M078 [+]     
1 39076U 13005E   21171.14825147 -.00000054  00000-0  27775-3 0  9999
2 39076  51.9885  75.2894 0000574 144.1228 215.9677 12.62269202385999
GLOBALSTAR M095 [+]     
1 39077U 13005F   21171.41217295 -.00000110  00000-0 -35486-4 0  9992
2 39077  51.9812  72.4073 0000181  89.3981 270.6906 12.62263497386037
